[{"OBJECT_NAME":"HULIANWANG DIGUI-154","OBJECT_ID":"2026-013J","EPOCH":"2026-03-09T18:53:18.870144","MEAN_MOTION":13.46099902,"ECCENTRICITY":0.00025841,"INCLINATION":50.0188,"RA_OF_ASC_NODE":352.4737,"ARG_OF_PERICENTER":319.8315,"MEAN_ANOMALY":40.2373,"EPHEMERIS_TYPE":0,"CLASSIFICATION_TYPE":"U","NORAD_CAT_ID":67530,"ELEMENT_SET_NO":999,"REV_AT_EPOCH":681,"BSTAR":0.00020929694,"MEAN_MOTION_DOT":-4.0e-8,"MEAN_MOTION_DDOT":0},{"OBJECT_NAME":"FENGYUN 1C DEB","OBJECT_ID":"1999-025DFK","EPOCH":"2026-03-09T01:51:48.245472","MEAN_MOTION":13.7726674,"ECCENTRICITY":0.0207636,"INCLINATION":98.5993,"RA_OF_ASC_NODE":114.901,"ARG_OF_PERICENTER":8.7971,"MEAN_ANOMALY":351.6733,"EPHEMERIS_TYPE":0,"CLASSIFICATION_TYPE":"U","NORAD_CAT_ID":33674,"ELEMENT_SET_NO":999,"REV_AT_EPOCH":89553,"BSTAR":0.001641513,"MEAN_MOTION_DOT":1.87e-5,"MEAN_MOTION_DDOT":0}]
